KUIPER-00027            
1 63740U 25088S   25232.91670139 -.01515946  00000+0 -73351-1 0  9995
2 63740  51.8805 268.1096 0001084 210.8564 302.9838 15.21245298  5298
KUIPER-00028            
1 63741U 25088T   25232.91670139  .00018837  00000+0  78408-3 0  9990
2 63741  51.8779 267.5385 0002737 137.6186 260.3878 15.23773313  5359
KUIPER-00029            
1 63742U 25088U   25232.91670139  .00051080  00000+0  17700-2 0  9995
2 63742  51.8715 267.7642 0003128 149.9124 134.8930 15.29330656  5686
KUIPER-00030            
1 63743U 25088V   25232.91670139 -.00027624  00000+0 -35568-2 0  9997
2 63743  51.8984 278.3446 0014994 132.4159  73.1407 14.80455741  3482
KUIPER-00031            
1 63744U 25088W   25232.91670139  .00029934  00000+0  15112-2 0  9995
2 63744  51.8738 268.7344 0002993 147.0915  46.4469 15.16853557  5220
KUIPER-00032            
1 63745U 25088X   25232.82242455  .00012146  00000+0  43351-3 0  9996
2 63745  51.8732 269.1807 0004787 112.0002 248.1490 15.29253867 18733
KUIPER-00033            
1 63746U 25088Y   25232.45490808  .00003453  00000+0  48190-3 0  9990
2 63746  51.9000 296.4523 0002812 230.1177 129.9539 14.79924759 17809
KUIPER-00034            
1 63747U 25088Z   25232.91330843 -.00275507  00000+0 -78662-2 0  9993
2 63747  51.8691 266.8691 0000808 128.2810 231.8249 15.36580706 17935
